{
    "week": 293,
    "satellites": [
        {
            "Name": "COSMOS 2433 (720)",
            "Line1": "1 32275U 07052A   24325.48199731 -.00000055  00000+0  00000+0 0  9990",
            "Line2": "2 32275  65.8725 335.1736 0005840 251.0004 108.9672  2.13104064132876",
            "SatelliteNumber": "32275",
            "Classification": "U",
            "LaunchYear": "07",
            "LaunchNumber": "052",
            "PieceOfLaunch": "A",
            "EpochYear": "24",
            "EpochDay": 325.48199731,
            "FirstDerivativeMeanMotion": -5.5e-07,
            "SecondDerivativeMeanMotion": "00000+0",
            "BSTAR": "00000+0",
            "SetNumber": "999",
            "Inclination": 65.8725,
            "RAAN": 335.1736,
            "Eccentricity": 0.000584,
            "ArgumentOfPerigee": 251.0004,
            "MeanAnomaly": 108.9672,
            "MeanMotion": 2.13104064,
            "RevolutionNumber": "13287"
        },
        {
            "Name": "COSMOS 2432 (719)",
            "Line1": "1 32276U 07052B   24324.24365156 -.00000057  00000+0  00000+0 0  9992",
            "Line2": "2 32276  65.8882 335.3318 0011193 310.0817 125.5936  2.13103141132834",
            "SatelliteNumber": "32276",
            "Classification": "U",
            "LaunchYear": "07",
            "LaunchNumber": "052",
            "PieceOfLaunch": "B",
            "EpochYear": "24",
            "EpochDay": 324.24365156,
            "FirstDerivativeMeanMotion": -5.7e-07,
            "SecondDerivativeMeanMotion": "00000+0",
            "BSTAR": "00000+0",
            "SetNumber": "999",
            "Inclination": 65.8882,
            "RAAN": 335.3318,
            "Eccentricity": 0.0011193,
            "ArgumentOfPerigee": 310.0817,
            "MeanAnomaly": 125.5936,
            "MeanMotion": 2.13103141,
            "RevolutionNumber": "13283"
        },
        {
            "Name": "COSMOS 2434 (721)",
            "Line1": "1 32393U 07065A   24325.41641062  .00000006  00000+0  00000+0 0  9992",
            "Line2": "2 32393  64.3154 211.2865 0003736  69.8553 131.8248  2.13101308131545",
            "SatelliteNumber": "32393",
            "Classification": "U",
            "LaunchYear": "07",
            "LaunchNumber": "065",
            "PieceOfLaunch": "A",
            "EpochYear": "24",
            "EpochDay": 325.41641062,
            "FirstDerivativeMeanMotion": 6e-08,
            "SecondDerivativeMeanMotion": "00000+0",
            "BSTAR": "00000+0",
            "SetNumber": "999",
            "Inclination": 64.3154,
            "RAAN": 211.2865,
            "Eccentricity": 0.0003736,
            "ArgumentOfPerigee": 69.8553,
            "MeanAnomaly": 131.8248,
            "MeanMotion": 2.13101308,
            "RevolutionNumber": "13154"
        },
        {
            "Name": "COSMOS 2436 (723)",
            "Line1": "1 32395U 07065C   24325.67752888  .00000003  00000+0  00000+0 0  9998",
            "Line2": "2 32395  64.3241 211.3439 0017238   5.6923 171.0442  2.13100047131511",
            "SatelliteNumber": "32395",
            "Classification": "U",
            "LaunchYear": "07",
            "LaunchNumber": "065",
            "PieceOfLaunch": "C",
            "EpochYear": "24",
            "EpochDay": 325.67752888,
            "FirstDerivativeMeanMotion": 3e-08,
            "SecondDerivativeMeanMotion": "00000+0",
            "BSTAR": "00000+0",
            "SetNumber": "999",
            "Inclination": 64.3241,
            "RAAN": 211.3439,
            "Eccentricity": 0.0017238,
            "ArgumentOfPerigee": 5.6923,
            "MeanAnomaly": 171.0442,
            "MeanMotion": 2.13100047,
            "RevolutionNumber": "13151"
        },
        {
            "Name": "COSMOS 2456 (730)",
            "Line1": "1 36111U 09070A   24325.43014507  .00000015  00000+0  00000+0 0  9992",
            "Line2": "2 36111  64.6894  90.5977 0001942 303.1889  63.5735  2.13103619116201",
            "SatelliteNumber": "36111",
            "Classification": "U",
            "LaunchYear": "09",
            "LaunchNumber": "070",
            "PieceOfLaunch": "A",
            "EpochYear": "24",
            "EpochDay": 325.43014507,
            "FirstDerivativeMeanMotion": 1.5e-07,
            "SecondDerivativeMeanMotion": "00000+0",
            "BSTAR": "00000+0",
            "SetNumber": "999",
            "Inclination": 64.6894,
            "RAAN": 90.5977,
            "Eccentricity": 0.0001942,
            "ArgumentOfPerigee": 303.1889,
            "MeanAnomaly": 63.5735,
            "MeanMotion": 2.13103619,
            "RevolutionNumber": "11620"
        },
        {
            "Name": "COSMOS 2457 (733)",
            "Line1": "1 36112U 09070B   24325.71124509  .00000016  00000+0  00000+0 0  9999",
            "Line2": "2 36112  64.6745  90.4433 0005824 152.8034 202.3038  2.13101065116243",
            "SatelliteNumber": "36112",
            "Classification": "U",
            "LaunchYear": "09",
            "LaunchNumber": "070",
            "PieceOfLaunch": "B",
            "EpochYear": "24",
            "EpochDay": 325.71124509,
            "FirstDerivativeMeanMotion": 1.6e-07,
            "SecondDerivativeMeanMotion": "00000+0",
            "BSTAR": "00000+0",
            "SetNumber": "999",
            "Inclination": 64.6745,
            "RAAN": 90.4433,
            "Eccentricity": 0.0005824,
            "ArgumentOfPerigee": 152.8034,
            "MeanAnomaly": 202.3038,
            "MeanMotion": 2.13101065,
            "RevolutionNumber": "11624"
        },
        {
            "Name": "COSMOS 2460 (732)",
            "Line1": "1 36402U 10007C   24325.49436521 -.00000053  00000+0  00000+0 0  9990",
            "Line2": "2 36402  65.7259 333.8113 0002997 264.2386 278.4119  2.13106233114594",
            "SatelliteNumber": "36402",
            "Classification": "U",
            "LaunchYear": "10",
            "LaunchNumber": "007",
            "PieceOfLaunch": "C",
            "EpochYear": "24",
            "EpochDay": 325.49436521,
            "FirstDerivativeMeanMotion": -5.3e-07,
            "SecondDerivativeMeanMotion": "00000+0",
            "BSTAR": "00000+0",
            "SetNumber": "999",
            "Inclination": 65.7259,
            "RAAN": 333.8113,
            "Eccentricity": 0.0002997,
            "ArgumentOfPerigee": 264.2386,
            "MeanAnomaly": 278.4119,
            "MeanMotion": 2.13106233,
            "RevolutionNumber": "11459"
        },
        {
            "Name": "COSMOS 2476 (744)",
            "Line1": "1 37867U 11064A   24325.49081844  .00000019  00000+0  00000+0 0  9995",
            "Line2": "2 37867  64.9597  92.2883 0022866 231.6247  93.2552  2.13101530101536",
            "SatelliteNumber": "37867",
            "Classification": "U",
            "LaunchYear": "11",
            "LaunchNumber": "064",
            "PieceOfLaunch": "A",
            "EpochYear": "24",
            "EpochDay": 325.49081844,
            "FirstDerivativeMeanMotion": 1.9e-07,
            "SecondDerivativeMeanMotion": "00000+0",
            "BSTAR": "00000+0",
            "SetNumber": "999",
            "Inclination": 64.9597,
            "RAAN": 92.2883,
            "Eccentricity": 0.0022866,
            "ArgumentOfPerigee": 231.6247,
            "MeanAnomaly": 93.2552,
            "MeanMotion": 2.1310153,
            "RevolutionNumber": "10153"
        },
        {
            "Name": "COSMOS 2477 (745)",
            "Line1": "1 37868U 11064B   24325.79464808  .00000021  00000+0  00000+0 0  9997",
            "Line2": "2 37868  64.9669  92.3522 0020013 231.9646 144.9079  2.13102945101535",
            "SatelliteNumber": "37868",
            "Classification": "U",
            "LaunchYear": "11",
            "LaunchNumber": "064",
            "PieceOfLaunch": "B",
            "EpochYear": "24",
            "EpochDay": 325.79464808,
            "FirstDerivativeMeanMotion": 2.1e-07,
            "SecondDerivativeMeanMotion": "00000+0",
            "BSTAR": "00000+0",
            "SetNumber": "999",
            "Inclination": 64.9669,
            "RAAN": 92.3522,
            "Eccentricity": 0.0020013,
            "ArgumentOfPerigee": 231.9646,
            "MeanAnomaly": 144.9079,
            "MeanMotion": 2.13102945,
            "RevolutionNumber": "10153"
        },
        {
            "Name": "COSMOS 2475 (743)",
            "Line1": "1 37869U 11064C   24325.41240770  .00000019  00000+0  00000+0 0  9994",
            "Line2": "2 37869  64.9737  92.3814 0024462 248.0683 153.2704  2.13101619101544",
            "SatelliteNumber": "37869",
            "Classification": "U",
            "LaunchYear": "11",
            "LaunchNumber": "064",
            "PieceOfLaunch": "C",
            "EpochYear": "24",
            "EpochDay": 325.4124077,
            "FirstDerivativeMeanMotion": 1.9e-07,
            "SecondDerivativeMeanMotion": "00000+0",
            "BSTAR": "00000+0",
            "SetNumber": "999",
            "Inclination": 64.9737,
            "RAAN": 92.3814,
            "Eccentricity": 0.0024462,
            "ArgumentOfPerigee": 248.0683,
            "MeanAnomaly": 153.2704,
            "MeanMotion": 2.13101619,
            "RevolutionNumber": "10154"
        }
    ]
}